*******************************************************************************
 Revised: July 31, 2013                 Venus                           299 / 2
 
 PHYSICAL DATA (updated 2018-Aug-15):
  Vol. Mean Radius (km) =  6051.84+-0.01 Density (g/cm^3)      =  5.204
  Mass x10^23 (kg)      =    48.685      Volume (x10^10 km^3)  = 92.843
  Sidereal rot. period  =   243.022498 d Sid. Rot. Rate (rad/s)= -0.00000029924
  Mean solar day        =   116.7490 d   Equ. gravity  m/s^2   =  8.870
  Mom. of Inertia       =     0.33       Core radius (km)      = ~3200
  Geometric Albedo      =     0.65       Potential Love # k2   = ~0.25
  GM (km^3/s^2)         = 324858.592     Equatorial Radius, Re = 6051.893 km
  GM 1-sigma (km^3/s^2) =    +-0.006     Mass ratio (Sun/Venus)= 408523.72
  Atmos. pressure (bar) =  90            Max. angular diam.    =   60.2"
  Mean Temperature (K)  = 735            Visual mag. V(1,0)    =   -4.40
  Obliquity to orbit    = 177.3 deg      Hill's sphere rad.,Rp =  167.1
  Sidereal orb. per., y =   0.61519726   Orbit speed, km/s     =   35.021
  Sidereal orb. per., d = 224.70079922   Escape speed, km/s    =   10.361
                                 Perihelion  Aphelion    Mean
  Solar Constant (W/m^2)         2759        2650        2614
  Maximum Planetary IR (W/m^2)    153         153         153
  Minimum Planetary IR (W/m^2)    153         153         153
*******************************************************************************
 
 
*******************************************************************************
Ephemeris / WWW_USER Fri Nov  2 19:14:01 2018 Pasadena, USA      / Horizons    
*******************************************************************************
Target body name: Venus (299)                     {source: DE431mx}
Center body name: Solar System Barycenter (0)     {source: DE431mx}
Center-site name: BODY CENTER
*******************************************************************************
Start time      : A.D. 2020-Jan-01 00:00:00.0000 TDB
Stop  time      : A.D. 2035-Dec-31 00:00:00.0000 TDB
Step-size       : 1440 minutes
*******************************************************************************
Center geodetic : 0.00000000,0.00000000,0.0000000 {E-lon(deg),Lat(deg),Alt(km)}
Center cylindric: 0.00000000,0.00000000,0.0000000 {E-lon(deg),Dxy(km),Dz(km)}
Center radii    : (undefined)                                                  
Output units    : KM-S                                                         
Output type     : GEOMETRIC cartesian states
Output format   : 3 (position, velocity, LT, range, range-rate)
Reference frame : ICRF/J2000.0                                                 
Coordinate systm: Ecliptic and Mean Equinox of Reference Epoch                 
*******************************************************************************
            JDTDB,            Calendar Date (TDB),                      X,                      Y,                      Z,                     VX,                     VY,                     VZ,                     LT,                     RG,                     RR,
**************************************************************************************************************************************************************************************************************************************************************************
$$SOE
2459377.500000000, A.D. 2021-Jun-12 00:00:00.0000, -7.101356071618757E+07,  8.224317033500493E+07,  5.170964991088267E+06, -2.672136937055035E+01, -2.299494756845248E+01,  1.226324794777108E+00,  3.628589240625306E+02,  1.087823687519414E+08,  1.171465488958292E-01,
2459378.500000000, A.D. 2021-Jun-13 00:00:00.0000, -7.329410249002063E+07,  8.022415121710841E+07,  5.274850410987128E+06, -2.606543950841892E+01, -2.373849998228134E+01,  1.178270380124882E+00,  3.628920420323860E+02,  1.087922972695283E+08,  1.126659040953474E-01,
2459379.500000000, A.D. 2021-Jun-14 00:00:00.0000, -7.551706990798663E+07,  7.814170292524235E+07,  5.374543046276238E+06, -2.538872011980751E+01, -2.446311587631008E+01,  1.129276183034785E+00,  3.629238564327976E+02,  1.088018349868275E+08,  1.081007704299053E-01,
2459380.500000000, A.D. 2021-Jun-15 00:00:00.0000, -7.768069045564224E+07,  7.599748715972723E+07,  5.469963418542195E+06, -2.469176272174819E+01, -2.516820572431287E+01,  1.079382119800936E+00,  3.629543433706751E+02,  1.088109747408707E+08,  1.034543267551249E-01,
2459381.500000000, A.D. 2021-Jun-16 00:00:00.0000, -7.978324001162548E+07,  7.379321584344897E+07,  5.561035531179100E+06, -2.397513592191223E+01, -2.585319658097609E+01,  1.028628865384263E+00,  3.629834798780860E+02,  1.088197096460449E+08,  9.872981401922672E-02,
2459382.500000000, A.D. 2021-Jun-17 00:00:00.0000, -8.182304430187173E+07,  7.153064966675070E+07,  5.647686933334816E+06, -2.323942489686647E+01, -2.651753260019279E+01,  9.770578161918948E-01,  3.630112439297498E+02,  1.088280330993373E+08,  9.393053247212213E-02,
2459383.500000000, A.D. 2021-Jun-18 00:00:00.0000, -8.379848030801645E+07,  6.921159658831561E+07,  5.729848780609630E+06, -2.248523085344005E+01, -2.716067553539093E+01,  9.247110521285666E-01,  3.630376144597208E+02,  1.088359387853360E+08,  8.905983881999152E-02,
2459384.500000000, A.D. 2021-Jun-19 00:00:00.0000, -8.570797762855569E+07,  6.683791029361968E+07,  5.807455892446414E+06, -2.171317047390824E+01, -2.778210522127744E+01,  8.716312979691665E-01,  3.630625713772426E+02,  1.088434206809841E+08,  8.412114333825133E-02,
2459385.500000000, A.D. 2021-Jun-20 00:00:00.0000, -8.755001979139751E+07,  6.441148861258598E+07,  5.880446806155920E+06, -2.092387534572025E+01, -2.838132003641530E+01,  8.178618841024647E-01,  3.630860955817675E+02,  1.088504730600810E+08,  7.911790695033387E-02,
2459386.500000000, A.D. 2021-Jun-21 00:00:00.0000, -8.932314551650101E+07,  6.193427189811993E+07,  5.948763827524938E+06, -2.011799137651795E+01, -2.895783734608543E+01,  7.634467066965946E-01,  3.631081689771271E+02,  1.088570904975323E+08,  7.405363827596720E-02,
2459387.500000000, A.D. 2021-Jun-22 00:00:00.0000, -9.102594992736502E+07,  5.940824136725172E+07,  6.012353077959593E+06, -1.929617819521275E+01, -2.951119392492049E+01,  7.084301873375924E-01,  3.631287744848512E+02,  1.088632678733412E+08,  6.893189065010297E-02,
2459388.500000000, A.D. 2021-Jun-23 00:00:00.0000, -9.265708571019590E+07,  5.683541740665431E+07,  6.071164538120620E+06, -1.845910853990786E+01, -3.004094635883212E+01,  6.528572321930337E-01,  3.631478960566208E+02,  1.088690003763429E+08,  6.375625911387457E-02,
2459389.500000000, A.D. 2021-Jun-24 00:00:00.0000, -9.421526421965247E+07,  5.421785784434558E+07,  6.125152088011593E+06, -1.760746763347357E+01, -3.054667142578838E+01,  5.967731907534048E-01,  3.631655186858512E+02,  1.088742835076762E+08,  5.853037738087926E-02,
2459390.500000000, A.D. 2021-Jun-25 00:00:00.0000, -9.569925653013712E+07,  5.155765618941974E+07,  6.174273543486271E+06, -1.674195254760295E+01, -3.102796645503304E+01,  5.402238142046354E-01,  3.631816284183980E+02,  1.088791130839942E+08,  5.325791478598043E-02,
2459391.500000000, A.D. 2021-Jun-26 00:00:00.0000, -9.710789443167385E+07,  4.885693984168714E+07,  6.218490689145181E+06, -1.586327155619600E+01, -3.148444966437307E+01,  4.832552134858243E-01,  3.631962123623833E+02,  1.088834852404089E+08,  4.794257323018798E-02,
2459392.500000000, A.D. 2021-Jun-27 00:00:00.0000, -9.844007136948921E+07,  4.611786827313217E+07,  6.257769307596875E+06, -1.497214347894000E+01, -3.191576047519571E+01,  4.259138170869115E-01,  3.632092586971419E+02,  1.088873964331740E+08,  4.258808414310545E-02,
2459393.500000000, A.D. 2021-Jun-28 00:00:00.0000, -9.969474332648315E+07,  4.334263118312476E+07,  6.292079205063336E+06, -1.406929701584581E+01, -3.232155980497631E+01,  3.682463286331714E-01,  3.632207566812862E+02,  1.088908434421027E+08,  3.719820535041091E-02,
2459394.500000000, A.D. 2021-Jun-29 00:00:00.0000, -1.008709296478471E+08,  4.053344662934464E+07,  6.321394233313670E+06, -1.315547007377456E+01, -3.270153033691426E+01,  3.102996843216168E-01,  3.632306966598670E+02,  1.088938233727139E+08,  3.177671804294208E-02,
2459395.500000000, A.D. 2021-Jun-30 00:00:00.0000, -1.019677138071817E+08,  3.769255913639948E+07,  6.345692307915894E+06, -1.223140908574513E+01, -3.305537676661478E+01,  2.521210102560847E-01,  3.632390700706752E+02,  1.088963336581219E+08,  2.632742371910328E-02,
2459396.500000000, A.D. 2021-Jul-01 00:00:00.0000, -1.029842441135148E+08,  3.482223778413390E+07,  6.364955422799597E+06, -1.129786832383535E+01, -3.338282602551335E+01,  1.937575797312707E-01,  3.632458694496436E+02,  1.088983720606557E+08,  2.085414108818519E-02,
2459397.500000000, A.D. 2021-Jul-02 00:00:00.0000, -1.039197343587183E+08,  3.192477427763981E+07,  6.379169661128139E+06, -1.035560920671253E+01, -3.368362748100142E+01,  1.352567705270555E-01,  3.632510884353709E+02,  1.088999366732152E+08,  1.536070303894273E-02,
2459398.500000000, A.D. 2021-Jul-03 00:00:00.0000, -1.047734644048898E+08,  2.900248100098809E+07,  6.388325202483155E+06, -9.405399602582550E+00, -3.395755311310896E+01,  7.666602226009367E-02,  3.632547217727714E+02,  1.089010259203653E+08,  9.850953607393487E-03,
2459399.500000000, A.D. 2021-Jul-04 00:00:00.0000, -1.055447807113450E+08,  2.605768905670971E+07,  6.392416326368613E+06, -8.448013128458024E+00, -3.420439766769005E+01,  1.803279384553846E-02,  3.632567653158512E+02,  1.089016385591682E+08,  4.328744957167898E-03,
2459400.500000000, A.D. 2021-Jul-05 00:00:00.0000, -1.062330968009393E+08,  2.309274629305744E+07,  6.391441412046183E+06, -7.484228446635872E+00, -3.442397878609376E+01, -4.059547887958459E-02,  3.632572160296186E+02,  1.089017736797564E+08, -1.202065618143963E-03,
